RADUGA 2 [-]            
1 09416U 76092A   17344.97823687 -.00000005  00000-0  00000+0 0  9998
2 09416  10.8063 311.9315 0031326 306.3971 237.4141  1.00266989 98142
